H1 CPF 01  gfz 2022 02 20 01  5511 terrasarx 
H2 0702601  6201 31698    2022 02 20 00 59 42 2022 02 25 00 00 42   120 1 1  0 0 0
H9
10 0 59634  55422.000000  0   -3575257.831  -2000292.075  -5545280.403
10 0 59634  55542.000000  0   -3031165.900  -1435101.473  -6024079.494
10 0 59634  55662.000000  0   -2424482.885   -855091.868  -6397655.124
10 0 59634  55782.000000  0   -1765599.726   -271338.067  -6659566.317
10 0 59634  55902.000000  0   -1065980.724    305228.159  -6805305.165
10 0 59634  56022.000000  0    -337966.852    864017.261  -6832365.212
10 0 59634  56142.000000  0     405437.187   1394971.541  -6740279.842
10 0 59634  56262.000000  0    1150788.456   1888740.784  -6530630.470
10 0 59634  56382.000000  0    1884444.124   2336844.293  -6207023.938
10 0 59634  56502.000000  0    2592806.348   2731815.270  -5775036.950
10 0 59634  56622.000000  0    3262571.107   3067325.446  -5242128.621
10 0 59634  56742.000000  0    3880976.069   3338288.203  -4617523.496
10 0 59634  56862.000000  0    4436046.351   3540939.658  -3912063.548
10 0 59634  56982.000000  0    4916831.687   3672893.996  -3138029.188
10 0 59634  57102.000000  0    5313628.425   3733171.799  -2308931.662
10 0 59634  57222.000000  0    5618182.447   3722201.495  -1439280.711
10 0 59634  57342.000000  0    5823867.730   3641791.517   -544329.632
10 0 59634  57462.000000  0    5925834.964   3495074.082    360195.884
10 0 59634  57582.000000  0    5921127.031   3286421.674   1258380.704
10 0 59634  57702.000000  0    5808756.354   3021337.494   2134408.926
10 0 59634  57822.000000  0    5589742.440   2706323.700   2972850.880
10 0 59634  57942.000000  0    5267109.029   2348729.993   3758943.694
10 0 59634  58062.000000  0    4845839.139   1956586.040   4478857.515
10 0 59634  58182.000000  0    4332791.195   1538423.120   5119940.159
10 0 59634  58302.000000  0    3736581.832   1103089.652   5670939.956
10 0 59634  58422.000000  0    3067430.913    659564.128   6122201.832
10 0 59634  58542.000000  0    2336977.871    216770.323   6465828.991
10 0 59634  58662.000000  0    1558075.370   -216600.242   6695814.523
10 0 59634  58782.000000  0     744560.512   -632257.761   6808142.291
10 0 59634  58902.000000  0     -88993.540  -1022472.179   6800852.731
10 0 59634  59022.000000  0    -927538.694  -1380216.175   6674074.006
10 0 59634  59142.000000  0   -1755822.803  -1699291.871   6430018.882
10 0 59634  59262.000000  0   -2558665.065  -1974437.662   6072947.439
10 0 59634  59382.000000  0   -3321232.861  -2201414.886   5609099.613
10 0 59634  59502.000000  0   -4029320.168  -2377075.076   5046594.077
10 0 59634  59622.000000  0   -4669617.547  -2499404.197   4395290.694
10 0 59634  59742.000000  0   -5229968.630  -2567542.543   3666621.433
10 0 59634  59862.000000  0   -5699607.881  -2581779.803   2873392.538
10 0 59634  59982.000000  0   -6069375.774  -2543526.454   2029560.795
10 0 59634  60102.000000  0   -6331906.700  -2455262.575   1149985.531
10 0 59634  60222.000000  0   -6481781.921  -2320462.525    250159.515
10 0 59634  60342.000000  0   -6515643.702  -2143498.211   -654071.349
10 0 59634  60462.000000  0   -6432269.153  -1929523.652  -1546796.883
10 0 59634  60582.000000  0   -6232598.987  -1684343.973  -2412331.548
10 0 59634  60702.000000  0   -5919722.993  -1414272.486  -3235496.464
10 0 59634  60822.000000  0   -5498823.137  -1125979.555  -4001889.209
10 0 59634  60942.000000  0   -4977076.498   -826337.108  -4698136.130
10 0 59634  61062.000000  0   -4363520.801   -522262.247  -5312122.538
10 0 59634  61182.000000  0   -3668885.758   -220564.402  -5833196.616
10 0 59634  61302.000000  0   -2905395.555     72200.989  -6252343.771
10 0 59634  61422.000000  0   -2086548.054    349868.916  -6562330.396
10 0 59634  61542.000000  0   -1226874.127    606788.352  -6757817.512
10 0 59634  61662.000000  0    -341681.603    837932.164  -6835442.693
10 0 59634  61782.000000  0     553211.553   1038992.120  -6793870.328
10 0 59634  61902.000000  0    1441751.748   1206455.943  -6633813.605
10 0 59634  62022.000000  0    2307932.220   1337667.811  -6358025.396
10 0 59634  62142.000000  0    3136076.166   1430870.346  -5971255.714
10 0 59634  62262.000000  0    3911116.619   1485226.874  -5480177.061
10 0 59634  62382.000000  0    4618868.890   1500824.295  -4893280.599
10 0 59634  62502.000000  0    5246294.029   1478656.730  -4220741.220
10 0 59634  62622.000000  0    5781745.716   1420589.428  -3474250.818
10 0 59634  62742.000000  0    6215195.460   1329303.346  -2666823.474
10 0 59634  62862.000000  0    6538432.496   1208221.570  -1812574.307
10 0 59634  62982.000000  0    6745232.015   1061419.003   -926473.339
10 0 59634  63102.000000  0    6831485.819    893516.412    -24079.944
10 0 59634  63222.000000  0    6795291.093    709562.452    878736.334
10 0 59634  63342.000000  0    6636997.015    514906.337   1766081.679
10 0 59634  63462.000000  0    6359206.419    315062.997   2622327.668
10 0 59634  63582.000000  0    5966729.769    115575.770   3432395.188
10 0 59634  63702.000000  0    5466495.715    -78120.882   4182026.916
10 0 59634  63822.000000  0    4867419.775   -260832.999   4858041.264
10 0 59634  63942.000000  0    4180236.426   -427732.552   5448566.519
10 0 59634  64062.000000  0    3417295.082   -574472.543   5943246.977
10 0 59634  64182.000000  0    2592329.749   -697288.063   6333419.706
10 0 59634  64302.000000  0    1720205.616   -793083.131   6612260.424
10 0 59634  64422.000000  0     816647.160   -859501.093   6774898.085
10 0 59634  64542.000000  0    -102048.644   -894977.350   6818494.475
10 0 59634  64662.000000  0   -1019306.296   -898773.399   6742289.322
10 0 59634  64782.000000  0   -1918569.522   -870991.958   6547612.079
10 0 59634  64902.000000  0   -2783598.388   -812572.204   6237859.806
10 0 59634  65022.000000  0   -3598761.808   -725265.682   5818442.865
10 0 59634  65142.000000  0   -4349323.037   -611593.494   5296697.330
10 0 59634  65262.000000  0   -5021712.158   -474785.689   4681763.028
10 0 59634  65382.000000  0   -5603779.104   -318703.280   3984428.031
10 0 59634  65502.000000  0   -6085021.899   -147744.665   3216942.341
10 0 59634  65622.000000  0   -6456785.485     33261.788   2392804.736
10 0 59634  65742.000000  0   -6712428.169    219177.132   1526524.154
10 0 59634  65862.000000  0   -6847449.099    404679.330    633359.155
10 0 59634  65982.000000  0   -6859573.305    584395.996   -270958.547
10 0 59634  66102.000000  0   -6748791.415    753039.482  -1170510.508
10 0 59634  66222.000000  0   -6517352.613    905540.223  -2049480.416
10 0 59634  66342.000000  0   -6169714.326   1037174.959  -2892438.462
10 0 59634  66462.000000  0   -5712448.414   1143687.682  -3684619.690
10 0 59634  66582.000000  0   -5154103.158   1221398.632  -4412184.960
10 0 59634  66702.000000  0   -4505030.453   1267299.582  -5062460.178
10 0 59634  66822.000000  0   -3777181.626   1279133.226  -5624150.794
10 0 59634  66942.000000  0   -2983878.115   1255455.255  -6087528.458
10 0 59634  67062.000000  0   -2139561.778   1195677.376  -6444588.608
10 0 59634  67182.000000  0   -1259529.425   1100092.544  -6689177.505
10 0 59634  67302.000000  0    -359656.701    969880.847  -6817086.565
10 0 59634  67422.000000  0     543882.300    807096.332  -6826115.802
10 0 59634  67542.000000  0    1434897.563    614635.426  -6716109.317
10 0 59634  67662.000000  0    2297467.899    396186.405  -6488958.916
10 0 59634  67782.000000  0    3116219.388    156161.318  -6148574.671
10 0 59634  67902.000000  0    3876595.919   -100388.758  -5700824.363
10 0 59634  68022.000000  0    4565115.773   -367874.892  -5153441.645
10 0 59634  68142.000000  0    5169613.591   -640285.170  -4515905.104
10 0 59634  68262.000000  0    5679462.805   -911312.515  -3799284.753
10 0 59634  68382.000000  0    6085771.876  -1174492.506  -3016058.863
10 0 59634  68502.000000  0    6381550.978  -1423348.890  -2179903.220
10 0 59634  68622.000000  0    6561844.922  -1651543.330  -1305455.174
10 0 59634  68742.000000  0    6623827.486  -1853025.480   -408056.270
10 0 59634  68862.000000  0    6566854.692  -2022179.772    496520.978
10 0 59634  68982.000000  0    6392474.905  -2153965.424   1392357.813
10 0 59634  69102.000000  0    6104393.936  -2244045.189   2263678.253
10 0 59634  69222.000000  0    5708396.733  -2288900.475   3095136.022
10 0 59634  69342.000000  0    5212226.881  -2285928.292   3872092.978
10 0 59634  69462.000000  0    4625427.266  -2233518.775   4580881.236
10 0 59634  69582.000000  0    3959149.261  -2131110.853   5209045.154
10 0 59634  69702.000000  0    3225932.600  -1979226.148   5745561.284
10 0 59634  69822.000000  0    2439459.854  -1779479.160   6181028.372
10 0 59634  69942.000000  0    1614295.005  -1534564.243   6507826.257
10 0 59634  70062.000000  0     765609.422  -1248220.356   6720243.436
10 0 59634  70182.000000  0     -91099.675   -925173.300   6814571.126
10 0 59634  70302.000000  0    -940292.284   -571056.780   6789162.896
10 0 59634  70422.000000  0   -1766666.080   -192314.305   6644461.135
10 0 59634  70542.000000  0   -2555430.801    203917.659   6382989.895
10 0 59634  70662.000000  0   -3292572.479    609943.265   6009314.409
10 0 59634  70782.000000  0   -3965104.264   1017655.219   5529967.099
10 0 59634  70902.000000  0   -4561300.043   1418694.791   4953339.755
10 0 59634  71022.000000  0   -5070905.552   1804621.861   4289542.300
10 0 59634  71142.000000  0   -5485322.850   2167091.371   3550229.560
10 0 59634  71262.000000  0   -5797763.257   2498031.967   2748398.769
10 0 59634  71382.000000  0   -6003366.590   2789823.281   1898161.358
10 0 59634  71502.000000  0   -6099283.875   3035467.851   1014491.576
10 0 59634  71622.000000  0   -6084719.351   3228752.972    112955.534
10 0 59634  71742.000000  0   -5960930.082   3364397.760   -790571.125
10 0 59634  71862.000000  0   -5731184.767   3438181.679  -1680191.550
99
